start=new Date('2021-12-17T00:00:00.000Z').valueOf();
sats=[{"ELEMENT_SET_NO":"999","REV_AT_EPOCH":"7609","MEAN_ANOMALY":"279.6223","INCLINATION":"53.0539","COUNTRY_CODE":"US","CLASSIFICATION_TYPE":"U","OBJECT_ID":"2020-055AT","REF_FRAME":"TEME","TLE_LINE2":"2 46068  53.0539 186.6787 0002422  80.5040 279.6223 15.06395342 76092","SEMIMAJOR_AXIS":"6925.363","RA_OF_ASC_NODE":"186.6787","OBJECT_TYPE":"PAYLOAD","NORAD_CAT_ID":"46068","MEAN_ELEMENT_THEORY":"SGP4","MEAN_MOTION_DOT":"0.00000647","MEAN_MOTION_DDOT":"0.0000000000000","SITE":"AFETR","MEAN_MOTION":"15.06395342","DECAY_DATE":null,"BSTAR":"0.00006237900000","OBJECT_NAME":"STARLINK-1532","GP_ID":"191836119","ECCENTRICITY":"0.00024220","ARG_OF_PERICENTER":"80.5040","EPOCH":"2021-12-16T23:03:32.032224","PERIAPSIS":"545.551","FILE":"3242099","TLE_LINE1":"1 46068U 20055AT  21350.96078741  .00000647  00000-0  62379-4 0  9997","EPHEMERIS_TYPE":"0","LAUNCH_DATE":"2020-08-07","PERIOD":"95.592","TIME_SYSTEM":"UTC","APOAPSIS":"548.905","RCS_SIZE":"LARGE","CENTER_NAME":"EARTH"},{"PERIOD":"95.593","TLE_LINE1":"1 46069U 20055AU  21350.84284124  .00000549  00000-0  55784-4 0  9992","FILE":"3242223","EPHEMERIS_TYPE":"0","LAUNCH_DATE":"2020-08-07","APOAPSIS":"548.921","RCS_SIZE":"LARGE","CENTER_NAME":"EARTH","TIME_SYSTEM":"UTC","ECCENTRICITY":"0.00024110","GP_ID":"191859241","PERIAPSIS":"545.581","ARG_OF_PERICENTER":"83.3156","EPOCH":"2021-12-16T20:13:41.483136","NORAD_CAT_ID":"46069","MEAN_MOTION_DOT":"0.00000549","MEAN_ELEMENT_THEORY":"SGP4","OBJECT_TYPE":"PAYLOAD","SEMIMAJOR_AXIS":"6925.386","RA_OF_ASC_NODE":"187.2137","OBJECT_NAME":"STARLINK-1533","BSTAR":"0.00005578400000","SITE":"AFETR","MEAN_MOTION":"15.06387766","DECAY_DATE":null,"MEAN_MOTION_DDOT":"0.0000000000000","REV_AT_EPOCH":"7662","MEAN_ANOMALY":"276.8107","ELEMENT_SET_NO":"999","REF_FRAME":"TEME","TLE_LINE2":"2 46069  53.0529 187.2137 0002411  83.3156 276.8107 15.06387766 76625","CLASSIFICATION_TYPE":"U","OBJECT_ID":"2020-055AU","INCLINATION":"53.0529","COUNTRY_CODE":"US"},{"MEAN_MOTION_DDOT":"0.0000000000000","SITE":"AFETR","MEAN_MOTION":"15.06393800","DECAY_DATE":null,"BSTAR":"-0.00006031200000","OBJECT_NAME":"STARLINK-1536","SEMIMAJOR_AXIS":"6925.368","RA_OF_ASC_NODE":"186.5499","OBJECT_TYPE":"PAYLOAD","NORAD_CAT_ID":"46070","MEAN_MOTION_DOT":"-0.00001180","MEAN_ELEMENT_THEORY":"SGP4","INCLINATION":"53.0526","COUNTRY_CODE":"US","OBJECT_ID":"2020-055AV","CLASSIFICATION_TYPE":"U","REF_FRAME":"TEME","TLE_LINE2":"2 46070  53.0526 186.5499 0002340  80.2590 279.8663 15.06393800 76105","ELEMENT_SET_NO":"999","REV_AT_EPOCH":"7610","MEAN_ANOMALY":"279.8663","TIME_SYSTEM":"UTC","RCS_SIZE":"LARGE","APOAPSIS":"548.853","CENTER_NAME":"EARTH","TLE_LINE1":"1 46070U 20055AV  21350.99026938 -.00001180  00000-0 -60312-4 0  9994","EPHEMERIS_TYPE":"0","FILE":"3242102","LAUNCH_DATE":"2020-08-07","PERIOD":"95.593","ARG_OF_PERICENTER":"80.2590","EPOCH":"2021-12-16T23:45:59.274432","PERIAPSIS":"545.612","ECCENTRICITY":"0.00023400","GP_ID":"191836169"},{"MEAN_MOTION_DDOT":"0.0000000000000","DECAY_DATE":null,"SITE":"AFETR","MEAN_MOTION":"15.06407257","BSTAR":"0.00008780600000","OBJECT_NAME":"STARLINK-1538","RA_OF_ASC_NODE":"187.0735","SEMIMAJOR_AXIS":"6925.326","OBJECT_TYPE":"PAYLOAD","MEAN_MOTION_DOT":"0.00001027","MEAN_ELEMENT_THEORY":"SGP4","NORAD_CAT_ID":"46071","COUNTRY_CODE":"US","INCLINATION":"53.0523","OBJECT_ID":"2020-055AW","CLASSIFICATION_TYPE":"U","TLE_LINE2":"2 46071  53.0523 187.0735 0002334  85.1544 274.9711 15.06407257 76087","REF_FRAME":"TEME","ELEMENT_SET_NO":"999","MEAN_ANOMALY":"274.9711","REV_AT_EPOCH":"7608","TIME_SYSTEM":"UTC","CENTER_NAME":"EARTH","RCS_SIZE":"LARGE","APOAPSIS":"548.808","LAUNCH_DATE":"2020-08-07","EPHEMERIS_TYPE":"0","TLE_LINE1":"1 46071U 20055AW  21350.87600771  .00001027  00000-0  87806-4 0  9990","FILE":"3242114","PERIOD":"95.592","EPOCH":"2021-12-16T21:01:27.066144","ARG_OF_PERICENTER":"85.1544","PERIAPSIS":"545.575","GP_ID":"191836516","ECCENTRICITY":"0.00023340"},{"PERIOD":"95.593","FILE":"3242093","TLE_LINE1":"1 46072U 20055AX  21350.90086190 -.00001167  00000-0 -59434-4 0  9991","EPHEMERIS_TYPE":"0","LAUNCH_DATE":"2020-08-07","TIME_SYSTEM":"UTC","RCS_SIZE":"LARGE","APOAPSIS":"548.965","CENTER_NAME":"EARTH","GP_ID":"191836015","ECCENTRICITY":"0.00024960","PERIAPSIS":"545.508","EPOCH":"2021-12-16T21:37:14.468160","ARG_OF_PERICENTER":"80.2059","SEMIMAJOR_AXIS":"6925.372","RA_OF_ASC_NODE":"186.9427","NORAD_CAT_ID":"46072","MEAN_ELEMENT_THEORY":"SGP4","MEAN_MOTION_DOT":"-0.00001167","OBJECT_TYPE":"PAYLOAD","SITE":"AFETR","MEAN_MOTION":"15.06392479","DECAY_DATE":null,"MEAN_MOTION_DDOT":"0.0000000000000","OBJECT_NAME":"STARLINK-1539","BSTAR":"-0.00005943400000","ELEMENT_SET_NO":"999","REV_AT_EPOCH":"7608","MEAN_ANOMALY":"279.9212","INCLINATION":"53.0535","COUNTRY_CODE":"US","REF_FRAME":"TEME","TLE_LINE2":"2 46072  53.0535 186.9427 0002496  80.2059 279.9212 15.06392479 76083","CLASSIFICATION_TYPE":"U","OBJECT_ID":"2020-055AX"},{"MEAN_ANOMALY":"279.3344","REV_AT_EPOCH":"7661","ELEMENT_SET_NO":"999","CLASSIFICATION_TYPE":"U","OBJECT_ID":"2020-055AY","TLE_LINE2":"2 46073  53.0537 187.1933 0002470  80.7925 279.3344 15.06393498 76611","REF_FRAME":"TEME","COUNTRY_CODE":"US","INCLINATION":"53.0537","OBJECT_TYPE":"PAYLOAD","MEAN_MOTION_DOT":"-0.00001003","MEAN_ELEMENT_THEORY":"SGP4","NORAD_CAT_ID":"46073","RA_OF_ASC_NODE":"187.1933","SEMIMAJOR_AXIS":"6925.368","BSTAR":"-0.00004839500000","OBJECT_NAME":"STARLINK-1542","MEAN_MOTION_DDOT":"0.0000000000000","DECAY_DATE":null,"SITE":"AFETR","MEAN_MOTION":"15.06393498","GP_ID":"191859741","ECCENTRICITY":"0.00024700","EPOCH":"2021-12-16T20:24:17.662752","ARG_OF_PERICENTER":"80.7925","PERIAPSIS":"545.523","LAUNCH_DATE":"2020-08-07","TLE_LINE1":"1 46073U 20055AY  21350.85020443 -.00001003  00000-0 -48395-4 0  9998","EPHEMERIS_TYPE":"0","FILE":"3242223","PERIOD":"95.593","CENTER_NAME":"EARTH","RCS_SIZE":"LARGE","APOAPSIS":"548.944","TIME_SYSTEM":"UTC"},{"ELEMENT_SET_NO":"999","MEAN_ANOMALY":"282.7660","REV_AT_EPOCH":"7609","COUNTRY_CODE":"US","INCLINATION":"53.0532","CLASSIFICATION_TYPE":"U","OBJECT_ID":"2020-055AZ","TLE_LINE2":"2 46074  53.0532 186.9521 0002350  77.3591 282.7660 15.06403220 76091","REF_FRAME":"TEME","RA_OF_ASC_NODE":"186.9521","SEMIMAJOR_AXIS":"6925.339","OBJECT_TYPE":"PAYLOAD","MEAN_ELEMENT_THEORY":"SGP4","MEAN_MOTION_DOT":"0.00000741","NORAD_CAT_ID":"46074","MEAN_MOTION_DDOT":"0.0000000000000","DECAY_DATE":null,"SITE":"AFETR","MEAN_MOTION":"15.06403220","BSTAR":"0.00006863100000","OBJECT_NAME":"STARLINK-1549","ECCENTRICITY":"0.00023500","GP_ID":"191836649","ARG_OF_PERICENTER":"77.3591","EPOCH":"2021-12-16T21:38:36.241440","PERIAPSIS":"545.576","LAUNCH_DATE":"2020-08-07","TLE_LINE1":"1 46074U 20055AZ  21350.90180835  .00000741  00000-0  68631-4 0  9998","EPHEMERIS_TYPE":"0","FILE":"3242122","PERIOD":"95.592","TIME_SYSTEM":"UTC","CENTER_NAME":"EARTH","RCS_SIZE":"LARGE","APOAPSIS":"548.831"},{"CENTER_NAME":"EARTH","APOAPSIS":"548.855","RCS_SIZE":"LARGE","TIME_SYSTEM":"UTC","LAUNCH_DATE":"2020-08-07","FILE":"3242123","TLE_LINE1":"1 46075U 20055BA  21350.92761387  .00001149  00000-0  96049-4 0  9995","EPHEMERIS_TYPE":"0","PERIOD":"95.593","ARG_OF_PERICENTER":"84.8725","EPOCH":"2021-12-16T22:15:45.838368","PERIAPSIS":"545.630","ECCENTRICITY":"0.00023280","GP_ID":"191837008","BSTAR":"0.00009604900000","OBJECT_NAME":"STARLINK-1551","MEAN_MOTION_DDOT":"0.0000000000000","DECAY_DATE":null,"MEAN_MOTION":"15.06390603","SITE":"AFETR","OBJECT_TYPE":"PAYLOAD","MEAN_MOTION_DOT":"0.00001149","MEAN_ELEMENT_THEORY":"SGP4","NORAD_CAT_ID":"46075","RA_OF_ASC_NODE":"186.8438","SEMIMAJOR_AXIS":"6925.377","OBJECT_ID":"2020-055BA","CLASSIFICATION_TYPE":"U","TLE_LINE2":"2 46075  53.0525 186.8438 0002328  84.8725 275.2530 15.06390603 76090","REF_FRAME":"TEME","COUNTRY_CODE":"US","INCLINATION":"53.0525","MEAN_ANOMALY":"275.2530","REV_AT_EPOCH":"7609","ELEMENT_SET_NO":"999"},{"INCLINATION":"53.0536","COUNTRY_CODE":"US","OBJECT_ID":"2020-055BB","CLASSIFICATION_TYPE":"U","REF_FRAME":"TEME","TLE_LINE2":"2 46076  53.0536 186.7285 0002590  76.9581 283.1697 15.06399956 76097","ELEMENT_SET_NO":"999","REV_AT_EPOCH":"7609","MEAN_ANOMALY":"283.1697","MEAN_MOTION_DDOT":"0.0000000000000","SITE":"AFETR","MEAN_MOTION":"15.06399956","DECAY_DATE":null,"BSTAR":"0.00007905900000","OBJECT_NAME":"STARLINK-1552","SEMIMAJOR_AXIS":"6925.349","RA_OF_ASC_NODE":"186.7285","OBJECT_TYPE":"PAYLOAD","NORAD_CAT_ID":"46076","MEAN_ELEMENT_THEORY":"SGP4","MEAN_MOTION_DOT":"0.00000896","ARG_OF_PERICENTER":"76.9581","EPOCH":"2021-12-16T22:52:55.038720","PERIAPSIS":"545.420","GP_ID":"191837023","ECCENTRICITY":"0.00025900","TIME_SYSTEM":"UTC","APOAPSIS":"549.007","RCS_SIZE":"LARGE","CENTER_NAME":"EARTH","EPHEMERIS_TYPE":"0","TLE_LINE1":"1 46076U 20055BB  21350.95341480  .00000896  00000-0  79059-4 0  9997","FILE":"3242124","LAUNCH_DATE":"2020-08-07","PERIOD":"95.592"},{"MEAN_MOTION_DDOT":"0.0000000000000","DECAY_DATE":null,"MEAN_MOTION":"15.06399256","SITE":"AFETR","BSTAR":"0.00007091200000","OBJECT_NAME":"STARLINK-1559","RA_OF_ASC_NODE":"187.0963","SEMIMAJOR_AXIS":"6925.351","OBJECT_TYPE":"PAYLOAD","MEAN_MOTION_DOT":"0.00000775","MEAN_ELEMENT_THEORY":"SGP4","NORAD_CAT_ID":"46077","COUNTRY_CODE":"US","INCLINATION":"53.0528","OBJECT_ID":"2020-055BC","CLASSIFICATION_TYPE":"U","REF_FRAME":"TEME","TLE_LINE2":"2 46077  53.0528 187.0963 0002355  79.5729 280.5525 15.06399256 76575","ELEMENT_SET_NO":"999","MEAN_ANOMALY":"280.5525","REV_AT_EPOCH":"7657","TIME_SYSTEM":"UTC","CENTER_NAME":"EARTH","RCS_SIZE":"LARGE","APOAPSIS":"548.847","LAUNCH_DATE":"2020-08-07","FILE":"3242223","TLE_LINE1":"1 46077U 20055BC  21350.86865322  .00000775  00000-0  70912-4 0  9999","EPHEMERIS_TYPE":"0","PERIOD":"95.592","EPOCH":"2021-12-16T20:50:51.638208","ARG_OF_PERICENTER":"79.5729","PERIAPSIS":"545.585","GP_ID":"191859242","ECCENTRICITY":"0.00023550"}];
